{"type": "FeatureCollection", "features": [ {"type": "Feature", "properties": {"norad_id": 34375, "name": "IRIDIUM 33 DEB", "group": "iridium-33-debris", "lat": -26.810845080227043, "lon": -178.39951192546957, "alt_km": 907.2683228966016, "timestamp": "2025-12-10T23:33:13.203134+00:00", "meta": {"OBJECT_NAME": "IRIDIUM 33 DEB", "OBJECT_ID": "1997-051FT", "EPOCH": "2025-12-10T07:35:27.786048", "MEAN_MOTION": 14.17985501, "ECCENTRICITY": 0.0103124, "INCLINATION": 86.4328, "RA_OF_ASC_NODE": 183.6751, "ARG_OF_PERICENTER": 134.3251, "MEAN_ANOMALY": 46.2443, "EPHEMERIS_TYPE": 0, "CLASSIFICATION_TYPE": "U", "NORAD_CAT_ID": 34375, "ELEMENT_SET_NO": 999, "REV_AT_EPOCH": 86677, "BSTAR": 0.00060254, "MEAN_MOTION_DOT": 1.319e-05, "MEAN_MOTION_DDOT": 0}, "tle": {"line1": "1 34375U 97051FT  25344.31629382  .00001319  00000+0  60254-3 0  9999", "line2": "2 34375  86.4328 183.6751 0103124 134.3251  46.2443 14.17985501866774"}}, "geometry": {"type": "Point", "coordinates": [-178.39951192546957, -26.810845080227043]}}, {"type": "Feature", "properties": {"norad_id": 34376, "name": "IRIDIUM 33 DEB", "group": "iridium-33-debris", "lat": 63.782023213456974, "lon": 14.883215395814986, "alt_km": 684.8812908664231, "timestamp": "2025-12-10T23:33:13.203143+00:00", "meta": {"OBJECT_NAME": "IRIDIUM 33 DEB", "OBJECT_ID": "1997-051FU", "EPOCH": "2025-12-10T11:45:58.663584", "MEAN_MOTION": 14.62514696, "ECCENTRICITY": 0.00269271, "INCLINATION": 86.2989, "RA_OF_ASC_NODE": 7.5509, "ARG_OF_PERICENTER": 174.2059, "MEAN_ANOMALY": 185.9469, "EPHEMERIS_TYPE": 0, "CLASSIFICATION_TYPE": "U", "NORAD_CAT_ID": 34376, "ELEMENT_SET_NO": 999, "REV_AT_EPOCH": 87974, "BSTAR": 0.0021547736, "MEAN_MOTION_DOT": 0.0001101, "MEAN_MOTION_DDOT": 0}, "tle": {"line1": "1 34376U 97051FU  25344.49026231  .00011010  00000+0  21548-2 0  9994", "line2": "2 34376  86.2989   7.5509 0026927 174.2059 185.9469 14.62514696879748"}}, "geometry": {"type": "Point", "coordinates": [14.883215395814986, 63.782023213456974]}}, {"type": "Feature", "properties": {"norad_id": 34486, "name": "IRIDIUM 33 DEB", "group": "iridium-33-debris", "lat": 70.68789415546222, "lon": 23.203868722672546, "alt_km": 567.1982421116454, "timestamp": "2025-12-10T23:33:13.203153+00:00", "meta": {"OBJECT_NAME": "IRIDIUM 33 DEB", "OBJECT_ID": "1997-051GB", "EPOCH": "2025-12-10T12:34:52.076640", "MEAN_MOTION": 14.95631974, "ECCENTRICITY": 0.00134896, "INCLINATION": 86.3938, "RA_OF_ASC_NODE": 13.0469, "ARG_OF_PERICENTER": 119.9859, "MEAN_ANOMALY": 11.1663, "EPHEMERIS_TYPE": 0, "CLASSIFICATION_TYPE": "U", "NORAD_CAT_ID": 34486, "ELEMENT_SET_NO": 999, "REV_AT_EPOCH": 88953, "BSTAR": 0.0031930379, "MEAN_MOTION_DOT": 0.00035691, "MEAN_MOTION_DDOT": 0}, "tle": {"line1": "1 34486U 97051GB  25344.52421385  .00035691  00000+0  31930-2 0  9996", "line2": "2 34486  86.3938  13.0469 0013489 119.9859  11.1663 14.95631974889534"}}, "geometry": {"type": "Point", "coordinates": [23.203868722672546, 70.68789415546222]}}, {"type": "Feature", "properties": {"norad_id": 34487, "name": "IRIDIUM 33 DEB", "group": "iridium-33-debris", "lat": 57.91423463495937, "lon": 18.988440581438166, "alt_km": 736.5730812786278, "timestamp": "2025-12-10T23:33:13.203162+00:00", "meta": {"OBJECT_NAME": "IRIDIUM 33 DEB", "OBJECT_ID": "1997-051GC", "EPOCH": "2025-12-10T01:47:16.386144", "MEAN_MOTION": 14.4321077, "ECCENTRICITY": 0.00325626, "INCLINATION": 86.3436, "RA_OF_ASC_NODE": 13.5248, "ARG_OF_PERICENTER": 136.7627, "MEAN_ANOMALY": 252.8644, "EPHEMERIS_TYPE": 0, "CLASSIFICATION_TYPE": "U", "NORAD_CAT_ID": 34487, "ELEMENT_SET_NO": 999, "REV_AT_EPOCH": 88210, "BSTAR": 0.00027422216, "MEAN_MOTION_DOT": 9.48e-06, "MEAN_MOTION_DDOT": 0}, "tle": {"line1": "1 34487U 97051GC  25344.07449521  .00000948  00000+0  27422-3 0  9998", "line2": "2 34487  86.3436  13.5248 0032562 136.7627 252.8644 14.43210770882100"}}, "geometry": {"type": "Point", "coordinates": [18.988440581438166, 57.91423463495937]}}, {"type": "Feature", "properties": {"norad_id": 34488, "name": "IRIDIUM 33 DEB", "group": "iridium-33-debris", "lat": -23.85715516227472, "lon": 128.31294501985815, "alt_km": 493.5358751032727, "timestamp": "2025-12-10T23:33:13.203172+00:00", "meta": {"OBJECT_NAME": "IRIDIUM 33 DEB", "OBJECT_ID": "1997-051GD", "EPOCH": "2025-12-10T14:48:36.946656", "MEAN_MOTION": 15.28578771, "ECCENTRICITY": 0.00138013, "INCLINATION": 86.3253, "RA_OF_ASC_NODE": 306.8644, "ARG_OF_PERICENTER": 55.1759, "MEAN_ANOMALY": 305.0785, "EPHEMERIS_TYPE": 0, "CLASSIFICATION_TYPE": "U", "NORAD_CAT_ID": 34488, "ELEMENT_SET_NO": 999, "REV_AT_EPOCH": 89207, "BSTAR": 0.0066251858, "MEAN_MOTION_DOT": 0.00188937, "MEAN_MOTION_DDOT": 0}, "tle": {"line1": "1 34488U 97051GD  25344.61709429  .00188937  00000+0  66252-2 0  9993", "line2": "2 34488  86.3253 306.8644 0013801  55.1759 305.0785 15.28578771892077"}}, "geometry": {"type": "Point", "coordinates": [128.31294501985815, -23.85715516227472]}}, {"type": "Feature", "properties": {"norad_id": 34492, "name": "IRIDIUM 33 DEB", "group": "iridium-33-debris", "lat": -79.06983407859819, "lon": 173.96363963318558, "alt_km": 682.6957658828833, "timestamp": "2025-12-10T23:33:13.203183+00:00", "meta": {"OBJECT_NAME": "IRIDIUM 33 DEB", "OBJECT_ID": "1997-051GH", "EPOCH": "2025-12-10T11:09:51.703200", "MEAN_MOTION": 14.25634536, "ECCENTRICITY": 0.01891979, "INCLINATION": 86.473, "RA_OF_ASC_NODE": 335.5473, "ARG_OF_PERICENTER": 245.5701, "MEAN_ANOMALY": 245.7256, "EPHEMERIS_TYPE": 0, "CLASSIFICATION_TYPE": "U", "NORAD_CAT_ID": 34492, "ELEMENT_SET_NO": 999, "REV_AT_EPOCH": 85026, "BSTAR": 0.0074682378, "MEAN_MOTION_DOT": 0.00021406, "MEAN_MOTION_DDOT": 0}, "tle": {"line1": "1 34492U 97051GH  25344.46518175  .00021406  00000+0  74682-2 0  9990", "line2": "2 34492  86.4730 335.5473 0189197 245.5701 245.7256 14.25634536850262"}}, "geometry": {"type": "Point", "coordinates": [173.96363963318558, -79.06983407859819]}}, {"type": "Feature", "properties": {"norad_id": 34497, "name": "IRIDIUM 33 DEB", "group": "iridium-33-debris", "lat": 52.923602943036016, "lon": -131.78907811212852, "alt_km": 839.6599697389529, "timestamp": "2025-12-10T23:33:13.203192+00:00", "meta": {"OBJECT_NAME": "IRIDIUM 33 DEB", "OBJECT_ID": "1997-051GN", "EPOCH": "2025-12-10T04:35:23.086752", "MEAN_MOTION": 14.2744131, "ECCENTRICITY": 0.00790645, "INCLINATION": 86.2779, "RA_OF_ASC_NODE": 53.4903, "ARG_OF_PERICENTER": 347.8917, "MEAN_ANOMALY": 40.4515, "EPHEMERIS_TYPE": 0, "CLASSIFICATION_TYPE": "U", "NORAD_CAT_ID": 34497, "ELEMENT_SET_NO": 999, "REV_AT_EPOCH": 86847, "BSTAR": 0.00082191095, "MEAN_MOTION_DOT": 2.102e-05, "MEAN_MOTION_DDOT": 0}, "tle": {"line1": "1 34497U 97051GN  25344.19123943  .00002102  00000+0  82191-3 0  9997", "line2": "2 34497  86.2779  53.4903 0079064 347.8917  40.4515 14.27441310868476"}}, "geometry": {"type": "Point", "coordinates": [-131.78907811212852, 52.923602943036016]}}, {"type": "Feature", "properties": {"norad_id": 34508, "name": "IRIDIUM 33 DEB", "group": "iridium-33-debris", "lat": -35.487846776248766, "lon": -74.01759078086232, "alt_km": 732.3371361575291, "timestamp": "2025-12-10T23:33:13.203202+00:00", "meta": {"OBJECT_NAME": "IRIDIUM 33 DEB", "OBJECT_ID": "1997-051GZ", "EPOCH": "2025-12-10T09:12:01.319040", "MEAN_MOTION": 14.38393247, "ECCENTRICITY": 0.00660379, "INCLINATION": 86.3701, "RA_OF_ASC_NODE": 103.6419, "ARG_OF_PERICENTER": 180.4805, "MEAN_ANOMALY": 179.6341, "EPHEMERIS_TYPE": 0, "CLASSIFICATION_TYPE": "U", "NORAD_CAT_ID": 34508, "ELEMENT_SET_NO": 999, "REV_AT_EPOCH": 87275, "BSTAR": 0.0023927243, "MEAN_MOTION_DOT": 7.501e-05, "MEAN_MOTION_DDOT": 0}, "tle": {"line1": "1 34508U 97051GZ  25344.38334860  .00007501  00000+0  23927-2 0  9992", "line2": "2 34508  86.3701 103.6419 0066037 180.4805 179.6341 14.38393247872753"}}, "geometry": {"type": "Point", "coordinates": [-74.01759078086232, -35.487846776248766]}}, {"type": "Feature", "properties": {"norad_id": 34521, "name": "IRIDIUM 33 DEB", "group": "iridium-33-debris", "lat": -55.06091919497527, "lon": -143.47904869748368, "alt_km": 688.6132693191366, "timestamp": "2025-12-10T23:33:13.203211+00:00", "meta": {"OBJECT_NAME": "IRIDIUM 33 DEB", "OBJECT_ID": "1997-051HN", "EPOCH": "2025-12-10T14:16:35.180832", "MEAN_MOTION": 14.63336597, "ECCENTRICITY": 0.00013221, "INCLINATION": 86.3801, "RA_OF_ASC_NODE": 31.4921, "ARG_OF_PERICENTER": 228.2808, "MEAN_ANOMALY": 131.8291, "EPHEMERIS_TYPE": 0, "CLASSIFICATION_TYPE": "U", "NORAD_CAT_ID": 34521, "ELEMENT_SET_NO": 999, "REV_AT_EPOCH": 88441, "BSTAR": 0.001370832, "MEAN_MOTION_DOT": 7.099e-05, "MEAN_MOTION_DDOT": 0}, "tle": {"line1": "1 34521U 97051HN  25344.59485163  .00007099  00000+0  13708-2 0  9991", "line2": "2 34521  86.3801  31.4921 0001322 228.2808 131.8291 14.63336597884418"}}, "geometry": {"type": "Point", "coordinates": [-143.47904869748368, -55.06091919497527]}}, {"type": "Feature", "properties": {"norad_id": 34525, "name": "IRIDIUM 33 DEB", "group": "iridium-33-debris", "lat": -3.644742322592278, "lon": -132.1743540531971, "alt_km": 751.9991969807552, "timestamp": "2025-12-10T23:33:13.203220+00:00", "meta": {"OBJECT_NAME": "IRIDIUM 33 DEB", "OBJECT_ID": "1997-051HS", "EPOCH": "2025-12-10T15:05:26.627424", "MEAN_MOTION": 14.42897814, "ECCENTRICITY": 0.00067023, "INCLINATION": 86.3728, "RA_OF_ASC_NODE": 47.7446, "ARG_OF_PERICENTER": 100.2162, "MEAN_ANOMALY": 52.7315, "EPHEMERIS_TYPE": 0, "CLASSIFICATION_TYPE": "U", "NORAD_CAT_ID": 34525, "ELEMENT_SET_NO": 999, "REV_AT_EPOCH": 88057, "BSTAR": 0.00056976145, "MEAN_MOTION_DOT": 1.923e-05, "MEAN_MOTION_DDOT": 0}, "tle": {"line1": "1 34525U 97051HS  25344.62878041  .00001923  00000+0  56976-3 0  9995", "line2": "2 34525  86.3728  47.7446 0006702 100.2162  52.7315 14.42897814880573"}}, "geometry": {"type": "Point", "coordinates": [-132.1743540531971, -3.644742322592278]}}]}